ONEWEB-0414             
1 50491U 21132Y   24366.66929669  .00000147  00000+0  33913-3 0  9995
2 50491  87.9098  81.3923 0001699  93.7309 266.4018 13.18686131151444
ONEWEB-0417             
1 50492U 21132Z   24366.67719994  .00000061  00000+0  12156-3 0  9996
2 50492  87.9104  81.4074 0001965 100.9911 259.1443 13.18686271151421
ONEWEB-0418             
1 50493U 21132AA  24366.45892493  .00000091  00000+0  19905-3 0  9991
2 50493  87.9102  81.4465 0002161  98.7538 261.3839 13.18685869151451
ONEWEB-0419             
1 50494U 21132AB  24366.47645215  .00000131  00000+0  29912-3 0  9996
2 50494  87.9100  81.4530 0002088 109.0565 251.0794 13.18685768151372
ONEWEB-0420             
1 50495U 21132AC  24366.97438727  .00000107  00000+0  23784-3 0  9994
2 50495  87.9097  81.3626 0001464 107.2165 252.9127 13.18686584152734
ONEWEB-0421             
1 50496U 21132AD  25001.19569172  .00000028  00000+0  38375-4 0  9990
2 50496  87.9105  81.2994 0001619  93.8169 266.3148 13.18687641152803
ONEWEB-0424             
1 50497U 21132AE  24366.62345643  .00000098  00000+0  21543-3 0  9992
2 50497  87.9105  81.4102 0002157 113.4111 246.7248 13.18685607151454
ONEWEB-0426             
1 50498U 21132AF  24366.66139717  .00000113  00000+0  25411-3 0  9996
2 50498  87.9097  81.4120 0002076  87.2873 272.8496 13.18686822151408
